[{"OBJECT_NAME":"STARLINK-36704","OBJECT_ID":"2026-025E","EPOCH":"2026-03-05T20:20:19.181472","MEAN_MOTION":15.75223967,"ECCENTRICITY":9.29e-5,"INCLINATION":97.2837,"RA_OF_ASC_NODE":176.2116,"ARG_OF_PERICENTER":140.7398,"MEAN_ANOMALY":219.3935,"EPHEMERIS_TYPE":0,"CLASSIFICATION_TYPE":"U","NORAD_CAT_ID":67697,"ELEMENT_SET_NO":999,"REV_AT_EPOCH":533,"BSTAR":0.00083261,"MEAN_MOTION_DOT":0.00126092,"MEAN_MOTION_DDOT":0},{"OBJECT_NAME":"STARLINK-36697","OBJECT_ID":"2026-025F","EPOCH":"2026-03-05T19:29:03.637824","MEAN_MOTION":15.80884822,"ECCENTRICITY":0.0001099,"INCLINATION":97.284,"RA_OF_ASC_NODE":176.2622,"ARG_OF_PERICENTER":68.48,"MEAN_ANOMALY":291.6585,"EPHEMERIS_TYPE":0,"CLASSIFICATION_TYPE":"U","NORAD_CAT_ID":67698,"ELEMENT_SET_NO":999,"REV_AT_EPOCH":533,"BSTAR":0.0013392,"MEAN_MOTION_DOT":0.00265163,"MEAN_MOTION_DDOT":0},{"OBJECT_NAME":"STARLINK-36716","OBJECT_ID":"2026-025G","EPOCH":"2026-03-05T20:00:00.999360","MEAN_MOTION":15.75213261,"ECCENTRICITY":0.0001292,"INCLINATION":97.2844,"RA_OF_ASC_NODE":176.2691,"ARG_OF_PERICENTER":86.7087,"MEAN_ANOMALY":1.4453,"EPHEMERIS_TYPE":0,"CLASSIFICATION_TYPE":"U","NORAD_CAT_ID":67699,"ELEMENT_SET_NO":999,"REV_AT_EPOCH":539,"BSTAR":-0.00037084,"MEAN_MOTION_DOT":-0.00055142,"MEAN_MOTION_DDOT":0},{"OBJECT_NAME":"STARLINK-36712","OBJECT_ID":"2026-025H","EPOCH":"2026-03-05T20:06:06.367680","MEAN_MOTION":15.75177143,"ECCENTRICITY":0.0001437,"INCLINATION":97.2845,"RA_OF_ASC_NODE":176.2249,"ARG_OF_PERICENTER":75.6837,"MEAN_ANOMALY":284.4588,"EPHEMERIS_TYPE":0,"CLASSIFICATION_TYPE":"U","NORAD_CAT_ID":67700,"ELEMENT_SET_NO":999,"REV_AT_EPOCH":533,"BSTAR":0.0018707,"MEAN_MOTION_DOT":0.00288376,"MEAN_MOTION_DDOT":0},{"OBJECT_NAME":"STARLINK-36713","OBJECT_ID":"2026-025J","EPOCH":"2026-03-05T18:37:10.365024","MEAN_MOTION":15.75334045,"ECCENTRICITY":0.0001771,"INCLINATION":97.285,"RA_OF_ASC_NODE":176.1559,"ARG_OF_PERICENTER":56.3413,"MEAN_ANOMALY":303.8021,"EPHEMERIS_TYPE":0,"CLASSIFICATION_TYPE":"U","NORAD_CAT_ID":67701,"ELEMENT_SET_NO":999,"REV_AT_EPOCH":533,"BSTAR":0.0023505,"MEAN_MOTION_DOT":0.00368305,"MEAN_MOTION_DDOT":0},{"OBJECT_NAME":"STARLINK-36695","OBJECT_ID":"2026-025K","EPOCH":"2026-03-05T20:11:41.469216","MEAN_MOTION":15.75181901,"ECCENTRICITY":8.58e-5,"INCLINATION":97.286,"RA_OF_ASC_NODE":176.2178,"ARG_OF_PERICENTER":92.5114,"MEAN_ANOMALY":267.6249,"EPHEMERIS_TYPE":0,"CLASSIFICATION_TYPE":"U","NORAD_CAT_ID":67702,"ELEMENT_SET_NO":999,"REV_AT_EPOCH":533,"BSTAR":0.0022471,"MEAN_MOTION_DOT":0.00349004,"MEAN_MOTION_DDOT":0},{"OBJECT_NAME":"STARLINK-36630","OBJECT_ID":"2026-025L","EPOCH":"2026-03-05T17:46:29.234496","MEAN_MOTION":15.80780668,"ECCENTRICITY":0.0001461,"INCLINATION":97.2861,"RA_OF_ASC_NODE":176.2053,"ARG_OF_PERICENTER":66.8263,"MEAN_ANOMALY":293.3159,"EPHEMERIS_TYPE":0,"CLASSIFICATION_TYPE":"U","NORAD_CAT_ID":67703,"ELEMENT_SET_NO":999,"REV_AT_EPOCH":532,"BSTAR":2.1206e-5,"MEAN_MOTION_DOT":3.915e-5,"MEAN_MOTION_DDOT":0},{"OBJECT_NAME":"STARLINK-36338","OBJECT_ID":"2026-025M","EPOCH":"2026-03-05T05:57:22.550688","MEAN_MOTION":15.75302844,"ECCENTRICITY":0.0001245,"INCLINATION":97.2845,"RA_OF_ASC_NODE":175.6477,"ARG_OF_PERICENTER":176.598,"MEAN_ANOMALY":183.5294,"EPHEMERIS_TYPE":0,"CLASSIFICATION_TYPE":"U","NORAD_CAT_ID":67704,"ELEMENT_SET_NO":999,"REV_AT_EPOCH":524,"BSTAR":0.0019334,"MEAN_MOTION_DOT":0.00300071,"MEAN_MOTION_DDOT":0},{"OBJECT_NAME":"STARLINK-36316","OBJECT_ID":"2026-025N","EPOCH":"2026-03-05T18:23:26.642112","MEAN_MOTION":15.75252468,"ECCENTRICITY":0.0001401,"INCLINATION":97.2848,"RA_OF_ASC_NODE":176.169,"ARG_OF_PERICENTER":53.93,"MEAN_ANOMALY":306.2095,"EPHEMERIS_TYPE":0,"CLASSIFICATION_TYPE":"U","NORAD_CAT_ID":67705,"ELEMENT_SET_NO":999,"REV_AT_EPOCH":532,"BSTAR":0.0015147,"MEAN_MOTION_DOT":0.0023269,"MEAN_MOTION_DDOT":0},{"OBJECT_NAME":"STARLINK-36707","OBJECT_ID":"2026-025P","EPOCH":"2026-03-05T20:00:00.999360","MEAN_MOTION":15.75194629,"ECCENTRICITY":0.0001306,"INCLINATION":97.2849,"RA_OF_ASC_NODE":176.2857,"ARG_OF_PERICENTER":91.1696,"MEAN_ANOMALY":40.9853,"EPHEMERIS_TYPE":0,"CLASSIFICATION_TYPE":"U","NORAD_CAT_ID":67706,"ELEMENT_SET_NO":999,"REV_AT_EPOCH":507,"BSTAR":1.2916e-5,"MEAN_MOTION_DOT":1.798e-5,"MEAN_MOTION_DDOT":0},{"OBJECT_NAME":"STARLINK-36645","OBJECT_ID":"2026-025Q","EPOCH":"2026-03-05T20:00:30.455712","MEAN_MOTION":15.75177742,"ECCENTRICITY":0.0001211,"INCLINATION":97.2856,"RA_OF_ASC_NODE":176.2296,"ARG_OF_PERICENTER":155.8162,"MEAN_ANOMALY":204.316,"EPHEMERIS_TYPE":0,"CLASSIFICATION_TYPE":"U","NORAD_CAT_ID":67707,"ELEMENT_SET_NO":999,"REV_AT_EPOCH":533,"BSTAR":0.0025585,"MEAN_MOTION_DOT":0.00399709,"MEAN_MOTION_DDOT":0},{"OBJECT_NAME":"STARLINK-36287","OBJECT_ID":"2026-025R","EPOCH":"2026-03-05T20:00:00.999360","MEAN_MOTION":15.75188219,"ECCENTRICITY":0.0001517,"INCLINATION":97.2855,"RA_OF_ASC_NODE":176.315,"ARG_OF_PERICENTER":85.7088,"MEAN_ANOMALY":116.4523,"EPHEMERIS_TYPE":0,"CLASSIFICATION_TYPE":"U","NORAD_CAT_ID":67708,"ELEMENT_SET_NO":999,"REV_AT_EPOCH":539,"BSTAR":-3.5899e-5,"MEAN_MOTION_DOT":-5.481e-5,"MEAN_MOTION_DDOT":0},{"OBJECT_NAME":"STARLINK-36698","OBJECT_ID":"2026-025S","EPOCH":"2026-03-05T20:00:00.999360","MEAN_MOTION":15.75194732,"ECCENTRICITY":0.0001442,"INCLINATION":97.2857,"RA_OF_ASC_NODE":176.3342,"ARG_OF_PERICENTER":74.2532,"MEAN_ANOMALY":171.917,"EPHEMERIS_TYPE":0,"CLASSIFICATION_TYPE":"U","NORAD_CAT_ID":67709,"ELEMENT_SET_NO":999,"REV_AT_EPOCH":523,"BSTAR":-0.0002498,"MEAN_MOTION_DOT":-0.00037234,"MEAN_MOTION_DDOT":0},{"OBJECT_NAME":"STARLINK-36344","OBJECT_ID":"2026-025T","EPOCH":"2026-03-05T20:00:00.999360","MEAN_MOTION":15.75213712,"ECCENTRICITY":0.0001325,"INCLINATION":97.2852,"RA_OF_ASC_NODE":176.2956,"ARG_OF_PERICENTER":109.5925,"MEAN_ANOMALY":46.5527,"EPHEMERIS_TYPE":0,"CLASSIFICATION_TYPE":"U","NORAD_CAT_ID":67710,"ELEMENT_SET_NO":999,"REV_AT_EPOCH":539,"BSTAR":-0.00013659,"MEAN_MOTION_DOT":-0.00020475,"MEAN_MOTION_DDOT":0},{"OBJECT_NAME":"STARLINK-36687","OBJECT_ID":"2026-025U","EPOCH":"2026-03-05T18:57:18.040032","MEAN_MOTION":15.80826213,"ECCENTRICITY":8.39e-5,"INCLINATION":97.2852,"RA_OF_ASC_NODE":176.288,"ARG_OF_PERICENTER":94.4885,"MEAN_ANOMALY":265.6479,"EPHEMERIS_TYPE":0,"CLASSIFICATION_TYPE":"U","NORAD_CAT_ID":67711,"ELEMENT_SET_NO":999,"REV_AT_EPOCH":534,"BSTAR":0.0015246,"MEAN_MOTION_DOT":0.00302393,"MEAN_MOTION_DDOT":0},{"OBJECT_NAME":"STARLINK-36705","OBJECT_ID":"2026-025V","EPOCH":"2026-03-05T07:20:12.842016","MEAN_MOTION":15.75277922,"ECCENTRICITY":0.0001525,"INCLINATION":97.2869,"RA_OF_ASC_NODE":175.7195,"ARG_OF_PERICENTER":71.2062,"MEAN_ANOMALY":288.9369,"EPHEMERIS_TYPE":0,"CLASSIFICATION_TYPE":"U","NORAD_CAT_ID":67712,"ELEMENT_SET_NO":999,"REV_AT_EPOCH":525,"BSTAR":0.0010207,"MEAN_MOTION_DOT":0.00155513,"MEAN_MOTION_DDOT":0},{"OBJECT_NAME":"STARLINK-36708","OBJECT_ID":"2026-025W","EPOCH":"2026-03-03T05:55:33.590784","MEAN_MOTION":15.81043377,"ECCENTRICITY":0.00013277,"INCLINATION":97.2866,"RA_OF_ASC_NODE":173.622,"ARG_OF_PERICENTER":127.8035,"MEAN_ANOMALY":232.3354,"EPHEMERIS_TYPE":0,"CLASSIFICATION_TYPE":"U","NORAD_CAT_ID":67713,"ELEMENT_SET_NO":999,"REV_AT_EPOCH":493,"BSTAR":0.002764055,"MEAN_MOTION_DOT":0.00571415,"MEAN_MOTION_DDOT":0},{"OBJECT_NAME":"STARLINK-36702","OBJECT_ID":"2026-025X","EPOCH":"2026-03-05T20:00:00.999360","MEAN_MOTION":15.76781049,"ECCENTRICITY":0.0001509,"INCLINATION":97.286,"RA_OF_ASC_NODE":176.3527,"ARG_OF_PERICENTER":81.8814,"MEAN_ANOMALY":209.2283,"EPHEMERIS_TYPE":0,"CLASSIFICATION_TYPE":"U","NORAD_CAT_ID":67714,"ELEMENT_SET_NO":999,"REV_AT_EPOCH":503,"BSTAR":-0.013663,"MEAN_MOTION_DOT":-0.01904162,"MEAN_MOTION_DDOT":0},{"OBJECT_NAME":"STARLINK-36718","OBJECT_ID":"2026-025Y","EPOCH":"2026-03-05T20:06:49.527072","MEAN_MOTION":15.80813979,"ECCENTRICITY":9.3e-5,"INCLINATION":97.2865,"RA_OF_ASC_NODE":176.3742,"ARG_OF_PERICENTER":81.8287,"MEAN_ANOMALY":278.3086,"EPHEMERIS_TYPE":0,"CLASSIFICATION_TYPE":"U","NORAD_CAT_ID":67715,"ELEMENT_SET_NO":999,"REV_AT_EPOCH":534,"BSTAR":0.0016937,"MEAN_MOTION_DOT":0.00337121,"MEAN_MOTION_DDOT":0},{"OBJECT_NAME":"STARLINK-36715","OBJECT_ID":"2026-025Z","EPOCH":"2026-03-05T18:38:38.683968","MEAN_MOTION":15.80916383,"ECCENTRICITY":0.0001249,"INCLINATION":97.2847,"RA_OF_ASC_NODE":176.3043,"ARG_OF_PERICENTER":55.6823,"MEAN_ANOMALY":304.4563,"EPHEMERIS_TYPE":0,"CLASSIFICATION_TYPE":"U","NORAD_CAT_ID":67716,"ELEMENT_SET_NO":999,"REV_AT_EPOCH":533,"BSTAR":0.0029438,"MEAN_MOTION_DOT":0.00607647,"MEAN_MOTION_DDOT":0},{"OBJECT_NAME":"STARLINK-36385","OBJECT_ID":"2026-025AA","EPOCH":"2026-03-05T20:18:47.752992","MEAN_MOTION":15.80903744,"ECCENTRICITY":0.0001378,"INCLINATION":97.2853,"RA_OF_ASC_NODE":176.3635,"ARG_OF_PERICENTER":38.8974,"MEAN_ANOMALY":321.2393,"EPHEMERIS_TYPE":0,"CLASSIFICATION_TYPE":"U","NORAD_CAT_ID":67717,"ELEMENT_SET_NO":999,"REV_AT_EPOCH":534,"BSTAR":0.0011569,"MEAN_MOTION_DOT":0.00228259,"MEAN_MOTION_DDOT":0},{"OBJECT_NAME":"CZ-2F DEB","OBJECT_ID":"2026-024E","EPOCH":"2026-02-27T12:10:33.167712","MEAN_MOTION":15.20915897,"ECCENTRICITY":0.02465096,"INCLINATION":50.3169,"RA_OF_ASC_NODE":68.583,"ARG_OF_PERICENTER":240.0171,"MEAN_ANOMALY":117.6115,"EPHEMERIS_TYPE":0,"CLASSIFICATION_TYPE":"U","NORAD_CAT_ID":67718,"ELEMENT_SET_NO":999,"REV_AT_EPOCH":308,"BSTAR":0.0035886422,"MEAN_MOTION_DOT":0.00191604,"MEAN_MOTION_DDOT":0},{"OBJECT_NAME":"CZ-2F DEB","OBJECT_ID":"2026-024F","EPOCH":"2026-03-05T10:13:58.592640","MEAN_MOTION":15.02321935,"ECCENTRICITY":0.031542,"INCLINATION":49.7929,"RA_OF_ASC_NODE":42.4485,"ARG_OF_PERICENTER":254.3722,"MEAN_ANOMALY":102.221,"EPHEMERIS_TYPE":0,"CLASSIFICATION_TYPE":"U","NORAD_CAT_ID":67719,"ELEMENT_SET_NO":999,"REV_AT_EPOCH":360,"BSTAR":0.0038472,"MEAN_MOTION_DOT":0.00159912,"MEAN_MOTION_DDOT":0}]
